{"fetched_at":"2026-03-29T16:36:15Z","count":15609,"tles":[{"name":"STARLINK-32606","line1":"1 61978U 24210V   26087.65946440  .00021753  00000+0  79705-3 0  9999","line2":"2 61978  42.9992  72.4710 0002017 263.4707  96.5915 15.27604968 77780","category":"Starlink"}]}